{
  "galileo": [
    {
      "OBJECT_NAME": "GSAT0101 (GALILEO-PFM)",
      "OBJECT_ID": "2011-060A",
      "EPOCH": "2026-07-08T13:14:56.643936",
      "MEAN_MOTION": 1.70475585,
      "ECCENTRICITY": 0.0002415,
      "INCLINATION": 56.9869,
      "RA_OF_ASC_NODE": 341.1826,
      "ARG_OF_PERICENTER": 60.6868,
      "MEAN_ANOMALY": 299.3373,
      "EPHEMERIS_TYPE": 0,
      "CLASSIFICATION_TYPE": "U",
      "NORAD_CAT_ID": 37846,
      "ELEMENT_SET_NO": 999,
      "REV_AT_EPOCH": 9148,
      "BSTAR": 0,
      "MEAN_MOTION_DOT": -7.4e-07,
      "MEAN_MOTION_DDOT": 0
    },
    {
      "OBJECT_NAME": "GSAT0102 (GALILEO-FM2)",
      "OBJECT_ID": "2011-060B",
      "EPOCH": "2026-07-08T11:27:00.571680",
      "MEAN_MOTION": 1.70475862,
      "ECCENTRICITY": 0.00024239,
      "INCLINATION": 56.9877,
      "RA_OF_ASC_NODE": 341.1851,
      "ARG_OF_PERICENTER": 11.7755,
      "MEAN_ANOMALY": 347.8886,
      "EPHEMERIS_TYPE": 0,
      "CLASSIFICATION_TYPE": "U",
      "NORAD_CAT_ID": 37847,
      "ELEMENT_SET_NO": 999,
      "REV_AT_EPOCH": 9148,
      "BSTAR": 0,
      "MEAN_MOTION_DOT": -7.4e-07,
      "MEAN_MOTION_DDOT": 0
    },
    {
      "OBJECT_NAME": "GSAT0103 (GALILEO-FM3)",
      "OBJECT_ID": "2012-055A",
      "EPOCH": "2026-07-09T18:23:01.882464",
      "MEAN_MOTION": 1.70473301,
      "ECCENTRICITY": 0.00039458,
      "INCLINATION": 55.8193,
      "RA_OF_ASC_NODE": 100.9259,
      "ARG_OF_PERICENTER": 309.3641,
      "MEAN_ANOMALY": 50.6099,
      "EPHEMERIS_TYPE": 0,
      "CLASSIFICATION_TYPE": "U",
      "NORAD_CAT_ID": 38857,
      "ELEMENT_SET_NO": 999,
      "REV_AT_EPOCH": 8539,
      "BSTAR": 0,
      "MEAN_MOTION_DOT": -1.9e-07,
      "MEAN_MOTION_DDOT": 0
    }
  ],
  "glo-ops": [
    {
      "OBJECT_NAME": "COSMOS 2433 (720)",
      "OBJECT_ID": "2007-052A",
      "EPOCH": "2026-07-10T20:20:46.755168",
      "MEAN_MOTION": 2.13104163,
      "ECCENTRICITY": 0.00033929,
      "INCLINATION": 65.5625,
      "RA_OF_ASC_NODE": 315.1381,
      "ARG_OF_PERICENTER": 203.0239,
      "MEAN_ANOMALY": 156.9646,
      "EPHEMERIS_TYPE": 0,
      "CLASSIFICATION_TYPE": "U",
      "NORAD_CAT_ID": 32275,
      "ELEMENT_SET_NO": 999,
      "REV_AT_EPOCH": 14556,
      "BSTAR": 0,
      "MEAN_MOTION_DOT": -6.2e-07,
      "MEAN_MOTION_DDOT": 0
    },
    {
      "OBJECT_NAME": "COSMOS 2432 (719)",
      "OBJECT_ID": "2007-052B",
      "EPOCH": "2026-07-11T09:22:51.561984",
      "MEAN_MOTION": 2.13103091,
      "ECCENTRICITY": 0.00074357,
      "INCLINATION": 65.578,
      "RA_OF_ASC_NODE": 315.2482,
      "ARG_OF_PERICENTER": 323.1745,
      "MEAN_ANOMALY": 37.2644,
      "EPHEMERIS_TYPE": 0,
      "CLASSIFICATION_TYPE": "U",
      "NORAD_CAT_ID": 32276,
      "ELEMENT_SET_NO": 999,
      "REV_AT_EPOCH": 14560,
      "BSTAR": 0,
      "MEAN_MOTION_DOT": -6.3e-07,
      "MEAN_MOTION_DDOT": 0
    }
  ],
  "beidou": [
    {
      "OBJECT_NAME": "BEIDOU-2 IGSO-1 (C06)",
      "OBJECT_ID": "2010-036A",
      "EPOCH": "2026-07-07T14:57:11.145024",
      "MEAN_MOTION": 1.00266308,
      "ECCENTRICITY": 0.0059224,
      "INCLINATION": 54.3062,
      "RA_OF_ASC_NODE": 162.7756,
      "ARG_OF_PERICENTER": 225.1869,
      "MEAN_ANOMALY": 229.2421,
      "EPHEMERIS_TYPE": 0,
      "CLASSIFICATION_TYPE": "U",
      "NORAD_CAT_ID": 36828,
      "ELEMENT_SET_NO": 999,
      "REV_AT_EPOCH": 5830,
      "BSTAR": 0,
      "MEAN_MOTION_DOT": -5.8e-07,
      "MEAN_MOTION_DDOT": 0
    },
    {
      "OBJECT_NAME": "BEIDOU-2 G4 (C04)",
      "OBJECT_ID": "2010-057A",
      "EPOCH": "2026-07-11T14:19:10.039872",
      "MEAN_MOTION": 1.00270061,
      "ECCENTRICITY": 0.00055669,
      "INCLINATION": 3.7036,
      "RA_OF_ASC_NODE": 68.7942,
      "ARG_OF_PERICENTER": 185.0954,
      "MEAN_ANOMALY": 50.3441,
      "EPHEMERIS_TYPE": 0,
      "CLASSIFICATION_TYPE": "U",
      "NORAD_CAT_ID": 37210,
      "ELEMENT_SET_NO": 999,
      "REV_AT_EPOCH": 5753,
      "BSTAR": 0,
      "MEAN_MOTION_DOT": -1.12e-06,
      "MEAN_MOTION_DDOT": 0
    }
  ]
}
